STARLINK-30497          
1 58011U 23153W   26067.73183320  .00002084  00000+0  87317-4 0  9990
2 58011  43.0056  72.1224 0001639 251.9212 108.1461 15.26752453134755
FLOCK 4G-11             
1 62629U 25009W   26068.45629261  .00012672  00000+0  47740-3 0  9990
2 62629  97.3964 150.6183 0001611 333.5407  26.5750 15.27220677 63680
